ONEWEB-0697             
1 61603U 24188K   26199.20117591 -.00000396  00000+0 -11534-2 0  9997
2 61603  87.8886  14.8905 0002570  95.7702 264.3719 13.11416112 88519
ONEWEB-0698             
1 61604U 24188L   26199.02655595  .00000343  00000+0  93295-3 0  9994
2 61604  87.8884  14.9388 0002614 115.6669 244.4729 13.11415379 88511
ONEWEB-0699             
1 61605U 24188M   26199.06369401  .00000579  00000+0  16231-2 0  9992
2 61605  87.8816  30.1122 0002472  96.1607 263.9802 13.10372221 87356
ONEWEB-0700             
1 61606U 24188N   26199.29445427  .00000475  00000+0  13234-2 0  9996
2 61606  87.8834  29.9804 0002510  94.4013 265.7401 13.10369169 87379
ONEWEB-0701             
1 61607U 24188P   26199.23506234 -.00000127  00000+0 -40003-3 0  9996
2 61607  87.8817  30.0782 0002597  97.3041 262.8381 13.10369759 87377
ONEWEB-0702             
1 61608U 24188Q   26199.22492218 -.00000169  00000+0 -51138-3 0  9999
2 61608  87.8906  14.8110 0002892  91.1676 268.9783 13.11418208 88555
ONEWEB-0704             
1 61609U 24188R   26199.07047219  .00000395  00000+0  10965-2 0  9991
2 61609  87.8821  30.1014 0002873  87.5083 272.6374 13.10369311 87338
ONEWEB-0705             
1 61610U 24188S   26199.07556591  .00000109  00000+0  27589-3 0  9995
2 61610  87.8820  30.1064 0002631  71.9449 288.1965 13.10368974 79501
ONEWEB-0706             
1 61611U 24188T   26199.28937149  .00000709  00000+0  19940-2 0  9998
2 61611  87.8819  30.0672 0002431  84.6767 275.4637 13.10373115 87457
ONEWEB-0707             
1 61612U 24188U   26199.06707531  .00000564  00000+0  15781-2 0  9993
2 61612  87.8823  30.1069 0002438  86.7405 273.4001 13.10369748 87363
ONEWEB-0708             
1 61613U 24188V   26199.23844217 -.00000252  00000+0 -75918-3 0  9991
2 61613  87.8813  30.0885 0001944  70.8433 289.2905 13.10369332 87361
